GLOBALSTAR M045         
1 25676U 99019A   24222.46927661 -.00000047  00000+0  40902-3 0  9996
2 25676  51.9968 113.7190 0000906  21.3118 149.6613 12.27043585155120
GLOBALSTAR M019         
1 25677U 99019B   24222.78696501 -.00000171  00000+0 -84119-3 0  9995
2 25677  51.9844 221.2693 0000938  46.2341 124.7218 12.13859565147513
GLOBALSTAR M044         
1 25678U 99019C   24222.47844867 -.00000055  00000+0  40462-3 0  9995
2 25678  51.9962 134.4914 0006126 153.5660  18.3910 11.90236001134204
GLOBALSTAR M042         
1 25679U 99019D   24222.71405472 -.00000051  00000+0  38333-3 0  9998
2 25679  51.9983 210.2392 0003035  16.1169 154.9343 12.22066714147248
GLOBALSTAR M025         
1 25770U 99031A   24222.58514181 -.00000029  00000+0  12001-2 0  9995
2 25770  51.9796 161.1168 0001921 350.3321 180.2378 11.22551957446713
GLOBALSTAR M049         
1 25771U 99031B   24222.54833499 -.00000111  00000+0 -15743-2 0  9997
2 25771  51.9844 180.3032 0002669 216.4855 143.5760 11.12107597 82758
GLOBALSTAR M047         
1 25772U 99031C   24222.33445452 -.00000076  00000+0 -17265-3 0  9995
2 25772  51.9793 207.5524 0016108  86.5964 273.6684 11.31921609435795
GLOBALSTAR M052         
1 25773U 99031D   24222.54562319 -.00000066  00000+0 -14132-5 0  9992
2 25773  51.9876 293.3741 0002247  20.1471  88.6308 11.15052807443746
